0 COSMOS 2251 DEB
1 37521U 93036BNA 13277.00189816  .00007476  00000-0  13126-2 0  1049
2 37521 074.0619 034.7125 0089665 180.5225 179.6376 14.65221503216508
0 COSMOS 2251 DEB
1 37521U 93036BNA 13279.66468789  .00006910  00000-0  12344-2 0  1056
2 37521 074.0261 029.6149 0075242 176.9513 183.0151 14.65250742216894
0 COSMOS 2251 DEB
1 37521U 93036BNA 13287.58430231  .00007540  00000-0  13267-2 0  1074
2 37521 074.0501 014.3869 0085034 158.1523 202.0767 14.65383703218053
0 COSMOS 2251 DEB
1 37521U 93036BNA 13290.51981406  .00009596  00000-0  16725-2 0  1082
2 37521 074.0639 008.7226 0087655 151.9910 208.6511 14.65466775218499
0 COSMOS 2251 DEB
1 37521U 93036BNA 13290.51981507  .00010371  00000-0  18080-2 0  1094
2 37521 074.0633 008.7248 0087379 151.6705 208.9751 14.65469008218490
0 COSMOS 2251 DEB
1 37521U 93036BNA 13290.53166786  .00011435  00000-0  19990-2 0  1082
2 37521 074.0646 008.7033 0087047 151.6147 271.5372 14.65464900218488
